SL-16 R/B,1 22803U 93059B   26086.12219579 -.00000145  00000+0 -47782-4 0  9992,2 22803  70.9923 334.3676 0017503 191.3199 168.7534 14.17235297682009,-70.32955505190333,-147.67829157657397,856856.6982663262
ARIANE 40 R/B,1 22830U 93061H   26086.15615235  .00000215  00000+0  94503-4 0  9996,2 22830  98.4884 154.6965 0009919 227.6922 132.3422 14.32870078696606,67.26366332475611,-18.836258680567674,796794.5466279878
COSMOS 2278,1 23087U 94023A   26086.27861326 -.00000248  00000+0 -10505-3 0  9994,2 23087  71.0521 138.3015 0009091 345.6384  14.4479 14.14376041647299,-3.7953802674024772,-55.56325419796306,853634.0826440876
SL-16 R/B,1 23088U 94023B   26086.24650478  .00000340  00000+0  20010-3 0  9999,2 23088  71.0013  34.0138 0005454 269.1317  90.9181 14.15014107648573,-11.48859688056903,14.790139620372162,846136.23918852
SL-16 R/B,1 23343U 94074B   26086.10926716  .00000480  00000+0  70862-4 0  9991,2 23343  97.7084 116.2198 0007163 153.3444 273.9846 14.79427189689825,49.28025520112827,-69.02516716120631,634289.7095740839
SL-16 R/B,1 23405U 94077B   26086.07992767  .00000005  00000+0  26960-4 0  9991,2 23405  70.9837 315.9054 0002051 198.0246 162.0805 14.15569164618699,57.35619738763094,87.96703506078445,849212.1758400932
ARIANE 40+ R/B,1 23561U 95021B   26086.19014877  .00000283  00000+0  10401-3 0  9994,2 23561  98.4466 157.4330 0007966  91.3745 327.2072 14.39784685621766,2.794887900066912,142.70820971818705,761581.4227592988
SL-16 R/B,1 23705U 95058B   26086.29975576 -.00000243  00000+0 -99971-4 0  9995,2 23705  71.0207 143.2859 0010113  93.1750 267.0531 14.15499735570340,67.40511023018465,-176.5423662210994,844694.8628456986
SL-16 R/B,1 24298U 96051B   26086.30470727  .00000092  00000+0  76693-4 0  9993,2 24298  70.7588 137.9568 0013628 119.7441 240.5037 14.12420618524133,46.033325003750384,143.94060175907242,854181.1152879021
ORBVIEW 2 (SEASTAR),1 24883U 97037A   26086.19183737  .00000297  00000+0  11965-3 0  9994,2 24883  98.8599 250.9702 0002487  34.6049 325.5298 14.35506824510982,-67.76142960212665,-101.0445802370979,799305.7817022623
SL-16 R/B,1 25400U 98043G   26086.27240586  .00000070  00000+0  48173-4 0  9994,2 25400  98.8284  39.7637 0009278 329.3204  30.7432 14.26053738441496,-45.29447056055459,-163.60358081984327,823875.8228875069
SL-16 R/B,1 25407U 98045B   26086.30203474 -.00000255  00000+0 -10476-3 0  9993,2 25407  71.0105 144.5383 0007903 340.5967  19.4854 14.16194504429590,60.0477509935475,165.86575203288928,847522.792298585
ISS (ZARYA),1 25544U 98067A   26086.13218664  .00012923  00000+0  24583-3 0  9994,2 25544  51.6343 346.1324 0006239 237.1062 122.9326 15.48575012559033,31.736661388325007,-1.3273818877082757,426748.8757794099
CZ-4B R/B,1 25732U 99025C   26086.16294772  .00000055  00000+0  47642-4 0  9990,2 25732  98.6591 130.0279 0036040 295.3328 133.5427 14.18268695390643,53.2216212034319,-52.56812405760401,865325.5759162823
OKEAN-O,1 25860U 99039A   26086.15849479  .00000692  00000+0  97488-4 0  9996,2 25860  97.9406 145.8693 0000882  89.0311 271.1002 14.80362711436979,17.535277997333214,-45.897554897506446,630437.4182091972
SL-16 R/B,1 25861U 99039B   26086.12194288  .00000566  00000+0  78526-4 0  9997,2 25861  97.9929 145.1894 0014415 195.7764 164.3002 14.81754602439443,-1.152844074954835,131.11089442833722,636695.2894795287
DELTA 2 R/B,1 25876U 99041E   26086.06879524  .00000798  00000+0  16794-3 0  9997,2 25876  51.7606 231.8559 0502645  39.6875 323.9733 14.11875892365480,1.8922897914890497,33.897488038625745,1107983.2492957097
